FALCONSAT-10            
1 58291U 23174AM  26068.70247784  .00006748  00000+0  25969-3 0  9991
2 58291  97.3865 145.7938 0008932 169.5942 190.5483 15.26670596129582
STARLINK-36489          
1 67328U 26002Z   26068.40754195  .00023582  00000+0  86387-3 0  9997
2 67328  42.9947 327.0375 0000369 316.9238  43.1584 15.27574438 11193
